start=new Date('2022-07-14T00:00:00.000Z').valueOf();
sats=[{"REF_FRAME":"TEME","APOAPSIS":"548.579","TLE_LINE1":"1 48410U 21038BK  22194.64758951 -.00000196  00000-0  57543-5 0  9990","PERIOD":"95.592","DECAY_DATE":null,"CLASSIFICATION_TYPE":"U","GP_ID":"208065409","OBJECT_NAME":"STARLINK-2563","ELEMENT_SET_NO":"999","LAUNCH_DATE":"2021-05-04","ARG_OF_PERICENTER":"57.4347","TIME_SYSTEM":"UTC","SITE":"AFETR","MEAN_MOTION":"15.06406078","MEAN_MOTION_DDOT":"0.0000000000000","INCLINATION":"53.0545","RA_OF_ASC_NODE":"169.8686","CENTER_NAME":"EARTH","RCS_SIZE":"LARGE","COUNTRY_CODE":"US","ECCENTRICITY":"0.00019990","PERIAPSIS":"545.811","MEAN_ANOMALY":"302.6835","BSTAR":"0.00000575430000","SEMIMAJOR_AXIS":"6925.330","EPOCH":"2022-07-13T15:32:31.733664","OBJECT_TYPE":"PAYLOAD","FILE":"3513188","NORAD_CAT_ID":"48410","MEAN_MOTION_DOT":"-0.00000196","TLE_LINE2":"2 48410  53.0545 169.8686 0001999  57.4347 302.6835 15.06406078 66728","MEAN_ELEMENT_THEORY":"SGP4","REV_AT_EPOCH":"6672","EPHEMERIS_TYPE":"0","OBJECT_ID":"2021-038BK"},{"APOAPSIS":"548.311","REF_FRAME":"TEME","OBJECT_NAME":"STARLINK-2505","LAUNCH_DATE":"2021-05-04","ELEMENT_SET_NO":"999","TIME_SYSTEM":"UTC","ARG_OF_PERICENTER":"70.6886","SITE":"AFETR","DECAY_DATE":null,"TLE_LINE1":"1 48411U 21038BL  22194.33289713  .00001931  00000-0  14847-3 0  9997","PERIOD":"95.592","CLASSIFICATION_TYPE":"U","GP_ID":"208034562","RCS_SIZE":"LARGE","CENTER_NAME":"EARTH","MEAN_MOTION":"15.06406559","MEAN_MOTION_DDOT":"0.0000000000000","INCLINATION":"53.0541","RA_OF_ASC_NODE":"166.2743","BSTAR":"0.00014847000000","EPOCH":"2022-07-13T07:59:22.312032","SEMIMAJOR_AXIS":"6925.328","OBJECT_TYPE":"PAYLOAD","FILE":"3512925","MEAN_MOTION_DOT":"0.00001931","NORAD_CAT_ID":"48411","MEAN_ELEMENT_THEORY":"SGP4","TLE_LINE2":"2 48411  53.0541 166.2743 0001614  70.6886 289.4278 15.06406559 66748","EPHEMERIS_TYPE":"0","REV_AT_EPOCH":"6674","OBJECT_ID":"2021-038BL","COUNTRY_CODE":"US","ECCENTRICITY":"0.00016140","PERIAPSIS":"546.076","MEAN_ANOMALY":"289.4278"},{"APOAPSIS":"548.625","REF_FRAME":"TEME","LAUNCH_DATE":"2021-05-04","ELEMENT_SET_NO":"999","OBJECT_NAME":"STARLINK-2581","TIME_SYSTEM":"UTC","ARG_OF_PERICENTER":"60.8687","SITE":"AFETR","PERIOD":"95.592","TLE_LINE1":"1 48412U 21038BM  22194.35138989  .00000178  00000-0  30861-4 0  9995","DECAY_DATE":null,"CLASSIFICATION_TYPE":"U","GP_ID":"208035313","RCS_SIZE":"LARGE","CENTER_NAME":"EARTH","MEAN_MOTION_DDOT":"0.0000000000000","MEAN_MOTION":"15.06397934","INCLINATION":"53.0544","RA_OF_ASC_NODE":"166.6219","SEMIMAJOR_AXIS":"6925.355","EPOCH":"2022-07-13T08:26:00.086496","BSTAR":"0.00003086100000","OBJECT_TYPE":"PAYLOAD","NORAD_CAT_ID":"48412","FILE":"3512925","MEAN_MOTION_DOT":"0.00000178","OBJECT_ID":"2021-038BM","REV_AT_EPOCH":"6674","EPHEMERIS_TYPE":"0","TLE_LINE2":"2 48412  53.0544 166.6219 0002029  60.8687 299.2504 15.06397934 66742","MEAN_ELEMENT_THEORY":"SGP4","PERIAPSIS":"545.815","ECCENTRICITY":"0.00020290","COUNTRY_CODE":"US","MEAN_ANOMALY":"299.2504"},{"APOAPSIS":"548.089","REF_FRAME":"TEME","ARG_OF_PERICENTER":"79.9586","TIME_SYSTEM":"UTC","SITE":"AFETR","OBJECT_NAME":"STARLINK-2461","LAUNCH_DATE":"2021-05-09","ELEMENT_SET_NO":"999","GP_ID":"208066904","DECAY_DATE":null,"TLE_LINE1":"1 48428U 21040A   22194.82359401 -.00000447  00000-0 -11109-4 0  9996","PERIOD":"95.591","CLASSIFICATION_TYPE":"U","RCS_SIZE":"LARGE","CENTER_NAME":"EARTH","RA_OF_ASC_NODE":"59.0799","MEAN_MOTION":"15.06411626","MEAN_MOTION_DDOT":"0.0000000000000","INCLINATION":"53.0542","NORAD_CAT_ID":"48428","FILE":"3513188","MEAN_MOTION_DOT":"-0.00000447","MEAN_ELEMENT_THEORY":"SGP4","TLE_LINE2":"2 48428  53.0542  59.0799 0001315  79.9586 280.1552 15.06411626 65365","REV_AT_EPOCH":"6536","EPHEMERIS_TYPE":"0","OBJECT_ID":"2021-040A","BSTAR":"-0.00001110900000","EPOCH":"2022-07-13T19:45:58.522464","SEMIMAJOR_AXIS":"6925.313","OBJECT_TYPE":"PAYLOAD","MEAN_ANOMALY":"280.1552","ECCENTRICITY":"0.00013150","COUNTRY_CODE":"US","PERIAPSIS":"546.267"},{"CENTER_NAME":"EARTH","RCS_SIZE":"LARGE","RA_OF_ASC_NODE":"29.2131","MEAN_MOTION_DDOT":"0.0000000000000","MEAN_MOTION":"15.06402952","INCLINATION":"53.0547","MEAN_MOTION_DOT":"-0.00003409","FILE":"3512965","NORAD_CAT_ID":"48429","REV_AT_EPOCH":"6705","EPHEMERIS_TYPE":"0","OBJECT_ID":"2021-040B","MEAN_ELEMENT_THEORY":"SGP4","TLE_LINE2":"2 48429  53.0547  29.2131 0001444  84.4450 275.6703 15.06402952 67051","EPOCH":"2022-07-13T19:02:11.518368","SEMIMAJOR_AXIS":"6925.340","BSTAR":"-0.00021008000000","OBJECT_TYPE":"PAYLOAD","MEAN_ANOMALY":"275.6703","PERIAPSIS":"546.204","ECCENTRICITY":"0.00014440","COUNTRY_CODE":"US","APOAPSIS":"548.205","REF_FRAME":"TEME","ARG_OF_PERICENTER":"84.4450","TIME_SYSTEM":"UTC","SITE":"AFETR","ELEMENT_SET_NO":"999","LAUNCH_DATE":"2021-05-09","OBJECT_NAME":"STARLINK-2749","GP_ID":"208039183","DECAY_DATE":null,"TLE_LINE1":"1 48429U 21040B   22194.79318887 -.00003409  00000-0 -21008-3 0  9995","PERIOD":"95.592","CLASSIFICATION_TYPE":"U"},{"MEAN_MOTION_DDOT":"0.0000000000000","MEAN_MOTION":"15.06414108","INCLINATION":"53.0558","RA_OF_ASC_NODE":"29.0623","RCS_SIZE":"LARGE","CENTER_NAME":"EARTH","PERIAPSIS":"546.233","ECCENTRICITY":"0.00013540","COUNTRY_CODE":"US","MEAN_ANOMALY":"269.2163","EPOCH":"2022-07-13T19:48:36.049536","SEMIMAJOR_AXIS":"6925.305","BSTAR":"0.00001240700000","OBJECT_TYPE":"PAYLOAD","NORAD_CAT_ID":"48430","FILE":"3513188","MEAN_MOTION_DOT":"-0.00000097","REV_AT_EPOCH":"6578","EPHEMERIS_TYPE":"0","OBJECT_ID":"2021-040C","MEAN_ELEMENT_THEORY":"SGP4","TLE_LINE2":"2 48430  53.0558  29.0623 0001354  90.8981 269.2163 15.06414108 65782","REF_FRAME":"TEME","APOAPSIS":"548.108","DECAY_DATE":null,"TLE_LINE1":"1 48430U 21040C   22194.82541724 -.00000097  00000-0  12407-4 0  9992","PERIOD":"95.591","CLASSIFICATION_TYPE":"U","GP_ID":"208065411","ELEMENT_SET_NO":"999","LAUNCH_DATE":"2021-05-09","OBJECT_NAME":"STARLINK-2729","ARG_OF_PERICENTER":"90.8981","TIME_SYSTEM":"UTC","SITE":"AFETR"},{"ECCENTRICITY":"0.00011690","COUNTRY_CODE":"US","PERIAPSIS":"546.344","MEAN_ANOMALY":"248.9911","OBJECT_TYPE":"PAYLOAD","BSTAR":"0.00005407400000","SEMIMAJOR_AXIS":"6925.289","EPOCH":"2022-07-13T20:07:50.401056","TLE_LINE2":"2 48431  53.0566  23.9986 0001169 111.1203 248.9911 15.06419529 65850","MEAN_ELEMENT_THEORY":"SGP4","EPHEMERIS_TYPE":"0","REV_AT_EPOCH":"6585","OBJECT_ID":"2021-040D","MEAN_MOTION_DOT":"0.00000525","FILE":"3513188","NORAD_CAT_ID":"48431","INCLINATION":"53.0566","MEAN_MOTION":"15.06419529","MEAN_MOTION_DDOT":"0.0000000000000","RA_OF_ASC_NODE":"23.9986","CENTER_NAME":"EARTH","RCS_SIZE":"LARGE","CLASSIFICATION_TYPE":"U","TLE_LINE1":"1 48431U 21040D   22194.83877779  .00000525  00000-0  54074-4 0  9997","DECAY_DATE":null,"PERIOD":"95.591","GP_ID":"208066661","OBJECT_NAME":"STARLINK-2700","LAUNCH_DATE":"2021-05-09","ELEMENT_SET_NO":"999","SITE":"AFETR","TIME_SYSTEM":"UTC","ARG_OF_PERICENTER":"111.1203","REF_FRAME":"TEME","APOAPSIS":"547.963"},{"MEAN_ANOMALY":"248.4170","ECCENTRICITY":"0.00012240","COUNTRY_CODE":"US","PERIAPSIS":"546.361","MEAN_ELEMENT_THEORY":"SGP4","TLE_LINE2":"2 48432  53.0558  19.4773 0001224 111.6949 248.4170 15.06401444 65916","EPHEMERIS_TYPE":"0","REV_AT_EPOCH":"6591","OBJECT_ID":"2021-040E","NORAD_CAT_ID":"48432","FILE":"3513188","MEAN_MOTION_DOT":"-0.00000340","OBJECT_TYPE":"PAYLOAD","BSTAR":"-0.00000392220000","EPOCH":"2022-07-13T19:40:44.659776","SEMIMAJOR_AXIS":"6925.344","RA_OF_ASC_NODE":"19.4773","INCLINATION":"53.0558","MEAN_MOTION":"15.06401444","MEAN_MOTION_DDOT":"0.0000000000000","RCS_SIZE":"LARGE","CENTER_NAME":"EARTH","GP_ID":"208066406","CLASSIFICATION_TYPE":"U","TLE_LINE1":"1 48432U 21040E   22194.81996134 -.00000340  00000-0 -39222-5 0  9999","DECAY_DATE":null,"PERIOD":"95.592","SITE":"AFETR","ARG_OF_PERICENTER":"111.6949","TIME_SYSTEM":"UTC","OBJECT_NAME":"STARLINK-2680","ELEMENT_SET_NO":"999","LAUNCH_DATE":"2021-05-09","REF_FRAME":"TEME","APOAPSIS":"548.057"},{"REF_FRAME":"TEME","APOAPSIS":"548.254","TLE_LINE1":"1 48433U 21040F   22194.83238553  .00000624  00000-0  60774-4 0  9994","PERIOD":"95.593","DECAY_DATE":null,"CLASSIFICATION_TYPE":"U","GP_ID":"208065660","OBJECT_NAME":"STARLINK-2699","LAUNCH_DATE":"2021-05-09","ELEMENT_SET_NO":"999","TIME_SYSTEM":"UTC","ARG_OF_PERICENTER":"93.8372","SITE":"AFETR","MEAN_MOTION":"15.06393253","MEAN_MOTION_DDOT":"0.0000000000000","INCLINATION":"53.0541","RA_OF_ASC_NODE":"24.3157","CENTER_NAME":"EARTH","RCS_SIZE":"LARGE","ECCENTRICITY":"0.00014720","COUNTRY_CODE":"US","PERIAPSIS":"546.215","MEAN_ANOMALY":"266.2785","BSTAR":"0.00006077400000","EPOCH":"2022-07-13T19:58:38.109792","SEMIMAJOR_AXIS":"6925.369","OBJECT_TYPE":"PAYLOAD","FILE":"3513188","MEAN_MOTION_DOT":"0.00000624","NORAD_CAT_ID":"48433","MEAN_ELEMENT_THEORY":"SGP4","TLE_LINE2":"2 48433  53.0541  24.3157 0001472  93.8372 266.2785 15.06393253 65846","EPHEMERIS_TYPE":"0","REV_AT_EPOCH":"6584","OBJECT_ID":"2021-040F"},{"REF_FRAME":"TEME","APOAPSIS":"548.195","CLASSIFICATION_TYPE":"U","PERIOD":"95.592","TLE_LINE1":"1 48434U 21040G   22194.79694485 -.00000374  00000-0 -61960-5 0  9993","DECAY_DATE":null,"GP_ID":"208065909","OBJECT_NAME":"STARLINK-2692","ELEMENT_SET_NO":"999","LAUNCH_DATE":"2021-05-09","SITE":"AFETR","TIME_SYSTEM":"UTC","ARG_OF_PERICENTER":"112.7111","INCLINATION":"53.0557","MEAN_MOTION":"15.06404459","MEAN_MOTION_DDOT":"0.0000000000000","RA_OF_ASC_NODE":"29.6999","RCS_SIZE":"LARGE","CENTER_NAME":"EARTH","COUNTRY_CODE":"US","ECCENTRICITY":"0.00014370","PERIAPSIS":"546.205","MEAN_ANOMALY":"247.4030","OBJECT_TYPE":"PAYLOAD","BSTAR":"-0.00000619600000","SEMIMAJOR_AXIS":"6925.335","EPOCH":"2022-07-13T19:07:36.035040","TLE_LINE2":"2 48434  53.0557  29.6999 0001437 112.7111 247.4030 15.06404459 65776","MEAN_ELEMENT_THEORY":"SGP4","OBJECT_ID":"2021-040G","REV_AT_EPOCH":"6577","EPHEMERIS_TYPE":"0","FILE":"3513188","NORAD_CAT_ID":"48434","MEAN_MOTION_DOT":"-0.00000374"}];
